[{"OBJECT_NAME":"KUIPER-00191","OBJECT_ID":"2025-301L","EPOCH":"2026-03-09T22:00:01.999584","MEAN_MOTION":14.8089991,"ECCENTRICITY":7.905e-5,"INCLINATION":51.9002,"RA_OF_ASC_NODE":72.1442,"ARG_OF_PERICENTER":129.7775,"MEAN_ANOMALY":22.6806,"EPHEMERIS_TYPE":0,"CLASSIFICATION_TYPE":"U","NORAD_CAT_ID":67143,"ELEMENT_SET_NO":999,"REV_AT_EPOCH":559,"BSTAR":0.0016415783,"MEAN_MOTION_DOT":0.00012607,"MEAN_MOTION_DDOT":0},{"OBJECT_NAME":"CZ-4B DEB","OBJECT_ID":"2011-079C","EPOCH":"2026-03-08T21:02:31.328736","MEAN_MOTION":14.6200288,"ECCENTRICITY":0.00950915,"INCLINATION":97.9715,"RA_OF_ASC_NODE":94.4508,"ARG_OF_PERICENTER":227.7153,"MEAN_ANOMALY":256.8146,"EPHEMERIS_TYPE":0,"CLASSIFICATION_TYPE":"U","NORAD_CAT_ID":38309,"ELEMENT_SET_NO":999,"REV_AT_EPOCH":74592,"BSTAR":0.00078676119,"MEAN_MOTION_DOT":4.159e-5,"MEAN_MOTION_DDOT":0}]
